IRIDIUM 155             
1 43573U 18061E   21285.75915100  .00000126  00000-0  38010-4 0  9999
2 43573  86.3984  50.6576 0002156 106.9177 253.2255 14.34216034168496
IRIDIUM 154             
1 43574U 18061F   21285.60056930  .00000126  00000-0  37788-4 0  9992
2 43574  86.3987  50.7760 0002018  86.3911 273.7516 14.34217278168511
IRIDIUM 163             
1 43575U 18061G   21285.44202175  .00000136  00000-0  41515-4 0  9993
2 43575  86.3985  50.8097 0002528  87.9649 272.1836 14.34215582168463
IRIDIUM 156             
1 43576U 18061H   21285.76549693  .00000320  00000-0  10710-3 0  9995
2 43576  86.3985  50.6797 0002397  97.3811 262.7657 14.34215184168496
IRIDIUM 164             
1 43577U 18061J   21285.74645775  .00000128  00000-0  38470-4 0  9992
2 43577  86.3984  50.7019 0002075  87.8548 272.2885 14.34215711168549
IRIDIUM 159             
1 43578U 18061K   21285.36590550  .00000057  00000-0  13426-4 0  9996
2 43578  86.3984  50.8337 0001992  89.1569 270.9855 14.34214886168453
IRIDIUM 180             
1 43922U 19002A   21285.43516782  .00000101  00000-0  28853-4 0  9998
2 43922  86.4005 347.7011 0002243  70.5228 289.6210 14.34215359144074
IRIDIUM 176             
1 43923U 19002B   21285.45078997  .00000289  00000-0  41866-4 0  9998
2 43923  86.6137 347.7291 0002245  92.7962 267.3512 14.72241394147842
IRIDIUM 168             
1 43924U 19002C   21285.42883027  .00000099  00000-0  28189-4 0  9996
2 43924  86.4007 347.7327 0002042  87.7192 272.4238 14.34219438144055
IRIDIUM 173             
1 43925U 19002D   21285.41614503  .00000105  00000-0  30453-4 0  9992
2 43925  86.4004 347.6965 0002147  88.7264 271.4177 14.34219672144036
IRIDIUM 169             
1 43926U 19002E   21285.54519529  .00000163  00000-0  46700-4 0  9995
2 43926  86.4283  19.2182 0004564 181.2334 178.8854 14.38610807144571
IRIDIUM 172             
1 43927U 19002F   21285.40980725  .00000102  00000-0  29391-4 0  9991
2 43927  86.4005 347.7018 0002131  86.4890 273.6549 14.34215826144047
IRIDIUM 175             
1 43928U 19002G   21285.44460328  .00000276  00000-0  39780-4 0  9993
2 43928  86.6140 347.5550 0002733  84.5624 275.5905 14.72263120147830
IRIDIUM 171             
1 43929U 19002H   21285.53032266  .00000108  00000-0  31409-4 0  9994
2 43929  86.4014 347.7680 0002038  88.5397 271.6032 14.34218547144054
IRIDIUM 170             
1 43930U 19002J   21285.45698537  .00000288  00000-0  41811-4 0  9993
2 43930  86.6138 347.7325 0002295  89.9464 270.2016 14.72261316147858
IRIDIUM 167             
1 43931U 19002K   21285.45420550  .00000108  00000-0  31461-4 0  9993
2 43931  86.4005 347.6906 0002106  75.6769 284.4660 14.34216640144043
